STARLINK-31871          
1 59673U 24084V   26068.29415533 -.00000438  00000+0 -64246-5 0  9995
2 59673  43.0001  43.9358 0000478 237.1288 122.9518 15.27566683104318
BLUEBON                 
1 62688U 25009CH  26068.70316231  .00010452  00000+0  37313-3 0  9992
2 62688  97.4017 152.2033 0001193  43.3900 316.7434 15.29047253 63767
